#aV2021  1  8  0  0  0.00000000     288 DD+AD WGS84 FIT  NGA
## 2139 432000.00000000   300.00000000 59222 0.0000000000000
+   32     1  2  3  4  5  6  7  8  9 10 11 12 13 14 15 16 17
+         18 19 20 21 22 23 24 25 26 27 28 29 30 31 32  0  0
+          0  0  0  0  0  0  0  0  0  0  0  0  0  0  0  0  0
+          0  0  0  0  0  0  0  0  0  0  0  0  0  0  0  0  0
+          0  0  0  0  0  0  0  0  0  0  0  0  0  0  0  0  0
++         2  2  2  2  2  2  2  2  2  2  2  2  2  2  2  2  2
++         2  2  2  2  2  2  2  2  2  2  2  2  2  2  2  0  0
++         0  0  0  0  0  0  0  0  0  0  0  0  0  0  0  0  0
++         0  0  0  0  0  0  0  0  0  0  0  0  0  0  0  0  0
++         0  0  0  0  0  0  0  0  0  0  0  0  0  0  0  0  0
%c cc cc ccc ccc cccc cccc cccc cccc ccccc ccccc ccccc ccccc
%c cc cc ccc ccc cccc cccc cccc cccc ccccc ccccc ccccc ccccc
%f  0.0000000  0.000000000  0.00000000000  0.000000000000000
%f  0.0000000  0.000000000  0.00000000000  0.000000000000000
%i    0    0    0    0      0      0      0      0         0
%i    0    0    0    0      0      0      0      0         0
/*      NGA, ST. LOUIS,MO.                                  
/*   EPHEMERIS COMPUTED FROM 2 DAYS OF DATA                 
/*   EPOCHA v5 SMOOTHER                                     
/*   G2139 IERS2010 SATAF SATAPC                            
*  2021  1  8  8 20  0.00000000
P  1   8733.118795  13674.368741 -21335.633309    783.696853                    
V  1 -26313.015600   2162.491862  -9165.735067     -0.061653                    
P  2  15107.682662 -14334.164187  17145.854242   -563.611903                    
V  2  20528.557570  -1450.427897 -20077.184784     -0.042510                    
P  3  12660.326264  23123.964046  -3733.831586    -50.785766                    
V  3  -4634.983348  -2436.456727 -31386.562461     -0.098545                    
P  4   2338.128483  20597.852538  16577.687752   -171.035044                    
V  4 -11414.974756  17807.997065 -20566.981752     -0.030447                    
P  5   2752.691509 -18509.923763  18626.966429    -30.432644                    
V  5  15566.709778  18404.072913  16037.397153     -0.009872                    
P  6  25229.127955  -5906.160396   6010.926807     -4.646004                    
V  6   7650.774435   1441.159055 -30981.907751      0.000149                    
P  7  22655.742623   7441.859560  12520.790928     13.516217                    
V  7 -15046.240085   3095.176344  25596.399955      0.145575                    
P  8  -3423.880242  24144.233884 -10156.289949     -5.827335                    
V  8  -7713.883225  10754.424845  28423.859557     -0.013667                    
P  9  11920.519540  10323.454448  21304.212215   -310.455688                    
V  9 -11870.005819  24519.167708  -5244.156426     -0.041092                    
P 10 -18429.909213  -4144.418690 -18676.776302    -34.408698                    
V 10 -12463.202885 -20328.409708  16457.687021     -0.085654                    
P 11   -728.041712  18366.133905 -19733.315483    -58.934853                    
V 11 -21254.631919  11611.715650  11495.908110      0.105824                    
P 12  -8526.363483 -24267.023030  -7178.058228     15.872615                    
V 12   6175.557417   6516.855913 -30243.147456     -0.052152                    
P 13  12905.213545 -23012.189890  -2561.973164     83.592690                    
V 13   3936.399289  -1127.804842  31764.256447      0.041250                    
P 14  18652.364530   6507.046428 -17763.583811     81.797998                    
V 14  10432.086680  20053.554561  18303.199388      0.068314                    
P 15   -322.140334 -24127.453643 -11042.769564   -177.781660                    
V 15   7791.297199 -11782.803148  26734.302442      0.025960                    
P 16  -5169.717078  17269.230120  19108.697028   -261.993768                    
V 16 -13374.176887 -21022.965754  15648.867838     -0.055287                    
P 17  17800.200823  -7779.192169 -17670.617531    377.515499                    
V 17 -10099.315807  21009.702497 -18973.367761      0.048711                    
P 18 -23858.016259  -5799.631119  10198.947038    339.631280                    
V 18  12791.690830  -2968.234604  28166.403764      0.029706                    
P 19  18737.186272 -13778.400301 -13027.964269    -54.711731                    
V 19  -6966.280017  14599.082233 -26104.878374      0.049911                    
P 20 -21269.158121 -13324.294865  -9154.631340    525.257988                    
V 20  -5529.442092 -10519.104461  28077.242006     -0.001693                    
P 21   -271.020078  15101.137796 -21089.040764     84.926316                    
V 21 -28355.381660   3656.087459   3276.933957      0.033780                    
P 22   7766.609986  22647.146229 -11473.691218   -701.913202                    
V 22 -11830.931110  -9502.066118 -26149.911428      0.065734                    
P 23 -19689.068542 -13732.639082 -11431.399285    115.100040                    
V 23  -6577.229263 -13083.590762  27070.560528      0.018291                    
P 24  -4228.769467 -15398.481466 -21476.959470      3.969517                    
V 24  26524.369204  -3861.045367  -2087.895757     -0.005441                    
P 25 -17536.974531 -19436.171101   5044.387435     55.492158                    
V 25  -1716.460986  -6906.354619 -30766.298556      0.075823                    
P 26 -13275.601456   8192.047256  21461.061005     26.732335                    
V 26 -16309.958289 -22026.599033  -1418.433011      0.057116                    
P 27 -12340.101312  23232.247595   1587.334520    -51.661581                    
V 27  -1400.159439  -3131.931616  32260.973418     -0.078080                    
P 28  17085.169549   3759.053840 -19359.495066    632.572945                    
V 28  11391.010885  23237.240844  14333.799250     -0.050949                    
P 29  -9825.567125 -11769.409882  21645.596095   -271.722304                    
V 29  14038.333693 -23663.267844  -6522.558926     -0.073500                    
P 30  26609.613850    225.015308   1992.426364   -365.516289                    
V 30  -2309.507830   3466.588126  30946.375269     -0.061062                    
P 31 -24530.023175   6977.140378   8161.185327    -92.586987                    
V 31 -10446.190256  -1874.538481 -29063.859995     -0.023424                    
P 32 -17783.009506   8804.532380 -17483.550697     13.116321                    
V 32   7902.413901 -21100.072768 -18728.922657      0.021572                    
EOF
